ONEWEB-0674             
1 55833U 23029AP  24228.27841871 -.00000049  00000+0 -16621-3 0  9999
2 55833  87.8918  63.1772 0001834  68.6095 291.5231 13.14502518 71273
ONEWEB-0675             
1 55834U 23029AQ  24228.30442946  .00000101  00000+0  21974-3 0  9998
2 55834  87.9104  78.4550 0001825  97.4398 262.6942 13.19727377 70433
ONEWEB-0720             
1 55835U 23029AR  24228.29654022  .00000181  00000+0  42088-3 0  9994
2 55835  87.9105  78.4567 0001261  80.8496 279.2780 13.19724721 70357
ONEWEB-0537             
1 56046U 23043A   24228.36942999  .00000212  00000+0  52134-3 0  9994
2 56046  87.9143   2.3261 0002026 104.6578 255.4777 13.16592306 70695
ONEWEB-0538             
1 56047U 23043B   24228.36309697  .00000083  00000+0  18391-3 0  9990
2 56047  87.9145   2.3473 0001687 107.9300 252.2015 13.16594157 70702
ONEWEB-0546             
1 56048U 23043C   24228.42644093  .00000125  00000+0  29340-3 0  9993
2 56048  87.9146   2.2995 0002661 102.1457 257.9972 13.16595148 70700
ONEWEB-0547             
1 56049U 23043D   24228.65496244  .00000126  00000+0  27314-3 0  9992
2 56049  87.9313  17.4687 0001703 103.6091 256.5232 13.21828501 69642
ONEWEB-0548             
1 56050U 23043E   24228.60375579  .00000260  00000+0  64690-3 0  9993
2 56050  87.9146   2.3071 0001840  79.3415 280.7922 13.16595412 70721
